ORBCOMM FM24 [-]        
1 25478U 98053D   23346.13702195  .00000717  00000+0  29869-3 0  9998
2 25478  45.0106   4.5401 0002800 291.4834  68.5715 14.34992459318205
ORBCOMM FM25 [-]        
1 25479U 98053E   23345.89267557  .00000738  00000+0  30612-3 0  9990
2 25479  45.0098   3.9294 0004447 327.5430  32.5143 14.34980423318182
ORBCOMM FM26 [-]        
1 25480U 98053F   23345.98536289  .00000666  00000+0  28365-3 0  9995
2 25480  45.0090 357.0330 0005506 357.7923   2.2899 14.34518787318248
ORBCOMM FM27 [+]        
1 25481U 98053G   23345.94809075  .00000751  00000+0  31065-3 0  9994
2 25481  45.0079   3.9265 0002017 259.6115 100.4505 14.34954479318165
ORBCOMM FM28 [-]        
1 25482U 98053H   23344.31246733  .00000896  00000+0  35776-3 0  9994
2 25482  45.0079 310.6456 0004109   9.7735 350.3192 14.35434976318559
ORBCOMM FM30 [-]        
1 25980U 99065A   23345.68330269  .00000563  00000+0  24684-3 0  9997
2 25980  45.0306 183.8398 0006425 117.4681 242.6820 14.34650454254897
ORBCOMM FM31 [-]        
1 25981U 99065B   23345.64995261  .00000554  00000+0  24358-3 0  9991
2 25981  45.0220 177.8083 0003542 139.4974 220.6137 14.34667801254445
ORBCOMM FM32 [+]        
1 25982U 99065C   23346.42861503  .00000513  00000+0  23407-3 0  9999
2 25982  45.0149 186.8458 0005767 143.7023 216.4215 14.33613713255337
